QIANFAN-57              
1 62787U 25016C   25340.60374729  .00000192  00000+0  27873-3 0  9997
2 62787  88.9781 103.8314 0002100 125.5733 234.5615 13.50974340 46374
QIANFAN-58              
1 62788U 25016D   25340.57496494  .00000175  00000+0  25182-3 0  9990
2 62788  88.9751 103.6680 0013566   7.9230 352.2133 13.50976186 46417
QIANFAN-59              
1 62789U 25016E   25340.59963275  .00000192  00000+0  27933-3 0  9994
2 62789  88.9774 103.7376 0014055  11.5289 348.6181 13.50977831 46415
QIANFAN-60              
1 62790U 25016F   25340.63270953  .00000074  00000+0  96366-4 0  9991
2 62790  88.9756 103.7069 0015430   7.2590 352.8781 13.50981165 46408
QIANFAN-61              
1 62791U 25016G   25340.59141554  .00000188  00000+0  27239-3 0  9999
2 62791  88.9823 103.8698 0014404   7.1704 352.9651 13.50978254 46412
QIANFAN-62              
1 62792U 25016H   25340.59551450  .00000186  00000+0  26956-3 0  9993
2 62792  88.9769 103.7411 0015784   6.9363 353.2003 13.50974657 46401
QIANFAN-63              
1 62793U 25016J   25340.62025926  .00000175  00000+0  25292-3 0  9992
2 62793  88.9776 103.6898 0015992  12.2364 347.9173 13.50981347 46446
QIANFAN-64              
1 62794U 25016K   25340.58727574  .00000167  00000+0  24078-3 0  9998
2 62794  88.9762 103.6680 0013737   6.0994 354.0322 13.50976440 46438
